[{"OBJECT_NAME":"CANX-4","OBJECT_ID":"2014-034C","EPOCH":"2026-03-09T13:49:15.377088","MEAN_MOTION":14.8106136,"ECCENTRICITY":0.0012356,"INCLINATION":98.3276,"RA_OF_ASC_NODE":300.1593,"ARG_OF_PERICENTER":336.897,"MEAN_ANOMALY":23.1684,"EPHEMERIS_TYPE":0,"CLASSIFICATION_TYPE":"U","NORAD_CAT_ID":40055,"ELEMENT_SET_NO":999,"REV_AT_EPOCH":62978,"BSTAR":0.00019272,"MEAN_MOTION_DOT":1.439e-5,"MEAN_MOTION_DDOT":0},{"OBJECT_NAME":"KUIPER-00058","OBJECT_ID":"2025-134U","EPOCH":"2026-03-09T15:19:13.617984","MEAN_MOTION":14.79975539,"ECCENTRICITY":6.28e-5,"INCLINATION":51.9027,"RA_OF_ASC_NODE":225.7628,"ARG_OF_PERICENTER":103.1746,"MEAN_ANOMALY":256.9286,"EPHEMERIS_TYPE":0,"CLASSIFICATION_TYPE":"U","NORAD_CAT_ID":64518,"ELEMENT_SET_NO":999,"REV_AT_EPOCH":4017,"BSTAR":8.4835e-5,"MEAN_MOTION_DOT":4.26e-6,"MEAN_MOTION_DDOT":0}]
